STARLINK-2022           
1 47643U 21012Z   23264.88931932  .00018798  00000+0  12763-2 0  9993
2 47643  53.0517 130.9813 0001367  83.2037 276.9107 15.06434414144645
